{
  "norad_id": 46331,
  "name": "STARLINK-1719",
  "history": [
    {
      "epoch": "2026-03-28T22:00:01.999584Z",
      "apogee_km": 386.0545528460443,
      "perigee_km": 376.53200265935175,
      "latitude_deg": 42.7422974140577,
      "longitude_deg": -134.9591805904411,
      "height_km": 389.40500756343476,
      "semi_major_axis_km": 6759.430277752697,
      "eccentricity": 0.00070439,
      "inclination_deg": 53.041,
      "raan_deg": 245.1257,
      "arg_perigee_deg": 335.9943,
      "mean_anomaly_deg": 146.0576,
      "mean_motion_rev_day": 15.62203559
    },
    {
      "epoch": "2026-03-29T06:00:02.998944Z",
      "apogee_km": 385.71969436033396,
      "perigee_km": 376.2636733316331,
      "latitude_deg": -14.356026191162549,
      "longitude_deg": 157.86313388044746,
      "height_km": 388.3387850272869,
      "semi_major_axis_km": 6759.128683845983,
      "eccentricity": 0.0006995,
      "inclination_deg": 53.0409,
      "raan_deg": 243.4941,
      "arg_perigee_deg": 335.6028,
      "mean_anomaly_deg": 222.3233,
      "mean_motion_rev_day": 15.62308119
    },
    {
      "epoch": "2026-03-30T02:38:56.558976Z",
      "apogee_km": 385.0170399091039,
      "perigee_km": 375.2013631260206,
      "latitude_deg": 1.307907194453817e-05,
      "longitude_deg": 12.04542972513482,
      "height_km": 376.4010030005055,
      "semi_major_axis_km": 6758.246201517562,
      "eccentricity": 0.0007262,
      "inclination_deg": 53.0416,
      "raan_deg": 239.2879,
      "arg_perigee_deg": 339.9449,
      "mean_anomaly_deg": 20.1278,
      "mean_motion_rev_day": 15.62614135
    },
    {
      "epoch": "2026-03-30T02:38:56.559840Z",
      "apogee_km": 385.01697232664264,
      "perigee_km": 375.2014307084828,
      "latitude_deg": 1.2758061384466658e-05,
      "longitude_deg": 12.045425875099992,
      "height_km": 376.40106648412404,
      "semi_major_axis_km": 6758.246201517562,
      "eccentricity": 0.00072619,
      "inclination_deg": 53.0416,
      "raan_deg": 239.2879,
      "arg_perigee_deg": 339.9449,
      "mean_anomaly_deg": 20.1278,
      "mean_motion_rev_day": 15.62614135
    },
    {
      "epoch": "2026-03-30T14:00:03.000384Z",
      "apogee_km": 384.62161114686114,
      "perigee_km": 374.39877762413835,
      "latitude_deg": 29.135660279294623,
      "longitude_deg": -5.661398488876608,
      "height_km": 385.94215541032156,
      "semi_major_axis_km": 6757.6471943854995,
      "eccentricity": 0.00075639,
      "inclination_deg": 53.0405,
      "raan_deg": 236.9741,
      "arg_perigee_deg": 339.8174,
      "mean_anomaly_deg": 162.7415,
      "mean_motion_rev_day": 15.62821908
    },
    {
      "epoch": "2026-03-30T22:00:00.999936Z",
      "apogee_km": 384.53750898394173,
      "perigee_km": 373.9446431119286,
      "latitude_deg": -30.317281022980733,
      "longitude_deg": -77.01440574867166,
      "height_km": 391.2701506891174,
      "semi_major_axis_km": 6757.378076047935,
      "eccentricity": 0.0007838,
      "inclination_deg": 53.0404,
      "raan_deg": 235.3442,
      "arg_perigee_deg": 340.5366,
      "mean_anomaly_deg": 238.4269,
      "mean_motion_rev_day": 15.6291527
    }
  ]
}